{
  "links" : {
    "next" : "https://api.nasa.gov/neo/rest/v1/feed?start_date=2016-02-16&end_date=2016-02-16&detailed=true&api_key=t0TVs3DtDT2H8Oy2Zy8m2eVrNsAVKAexjcZXUckd",
    "prev" : "https://api.nasa.gov/neo/rest/v1/feed?start_date=2016-02-14&end_date=2016-02-14&detailed=true&api_key=t0TVs3DtDT2H8Oy2Zy8m2eVrNsAVKAexjcZXUckd",
    "self" : "https://api.nasa.gov/neo/rest/v1/feed?start_date=2016-02-15&end_date=2016-02-15&detailed=true&api_key=t0TVs3DtDT2H8Oy2Zy8m2eVrNsAVKAexjcZXUckd"
  },
  "element_count" : 6,
  "near_earth_objects" : {
    "2016-02-15" : [ {
      "links" : {
        "self" : "https://api.nasa.gov/neo/rest/v1/neo/3743745?api_key=t0TVs3DtDT2H8Oy2Zy8m2eVrNsAVKAexjcZXUckd"
      },
      "neo_reference_id" : "3743745",
      "name" : "(2016 CP195)",
      "nasa_jpl_url" : "http://ssd.jpl.nasa.gov/sbdb.cgi?sstr=3743745",
      "absolute_magnitude_h" : 26.5,
      "estimated_diameter" : {
        "kilometers" : {
          "estimated_diameter_min" : 0.0133215567,
          "estimated_diameter_max" : 0.0297879063
        },
        "meters" : {
          "estimated_diameter_min" : 13.3215566698,
          "estimated_diameter_max" : 29.7879062798
        },
        "miles" : {
          "estimated_diameter_min" : 0.008277629,
          "estimated_diameter_max" : 0.0185093411
        },
        "feet" : {
          "estimated_diameter_min" : 43.7058959846,
          "estimated_diameter_max" : 97.7293544391
        }
      },
      "is_potentially_hazardous_asteroid" : false,
      "close_approach_data" : [ {
        "close_approach_date" : "2016-02-15",
        "epoch_date_close_approach" : 1455523200000,
        "relative_velocity" : {
          "kilometers_per_second" : "13.7896464204",
          "kilometers_per_hour" : "49642.727113346",
          "miles_per_hour" : "30846.0600777344"
        },
        "miss_distance" : {
          "astronomical" : "0.0334761207",
          "lunar" : "13.0222110748",
          "kilometers" : "5007956.5",
          "miles" : "3111800"
        },
        "orbiting_body" : "Earth"
      } ],
      "orbital_data" : {
        "orbit_id" : "7",
        "orbit_determination_date" : "2017-04-06 08:28:18",
        "orbit_uncertainty" : "8",
        "minimum_orbit_intersection" : ".0291967",
        "jupiter_tisserand_invariant" : "5.280",
        "epoch_osculation" : "2457431.5",
        "eccentricity" : ".196207036823308",
        "semi_major_axis" : "1.173759690011402",
        "inclination" : "24.56944261714928",
        "ascending_node_longitude" : "324.0081484463246",
        "orbital_period" : "464.4802078199394",
        "perihelion_distance" : ".9434597792916199",
        "perihelion_argument" : "236.5915183959284",
        "aphelion_distance" : "1.404059600731183",
        "perihelion_time" : "2457483.583078467937",
        "mean_anomaly" : "319.6324925523502",
        "mean_motion" : ".7750599356852634",
        "equinox" : "J2000"
      }
    }, {
      "links" : {
        "self" : "https://api.nasa.gov/neo/rest/v1/neo/3744560?api_key=t0TVs3DtDT2H8Oy2Zy8m2eVrNsAVKAexjcZXUckd"
      },
      "neo_reference_id" : "3744560",
      "name" : "(2016 DB)",
      "nasa_jpl_url" : "http://ssd.jpl.nasa.gov/sbdb.cgi?sstr=3744560",
      "absolute_magnitude_h" : 28.5,
      "estimated_diameter" : {
        "kilometers" : {
          "estimated_diameter_min" : 0.0053034072,
          "estimated_diameter_max" : 0.0118587791
        },
        "meters" : {
          "estimated_diameter_min" : 5.3034072332,
          "estimated_diameter_max" : 11.8587790858
        },
        "miles" : {
          "estimated_diameter_min" : 0.0032953835,
          "estimated_diameter_max" : 0.0073687014
        },
        "feet" : {
          "estimated_diameter_min" : 17.3996305869,
          "estimated_diameter_max" : 38.9067567758
        }
      },
      "is_potentially_hazardous_asteroid" : false,
      "close_approach_data" : [ {
        "close_approach_date" : "2016-02-15",
        "epoch_date_close_approach" : 1455523200000,
        "relative_velocity" : {
          "kilometers_per_second" : "9.4457573841",
          "kilometers_per_hour" : "34004.7265826347",
          "miles_per_hour" : "21129.2146924154"
        },
        "miss_distance" : {
          "astronomical" : "0.0008277949",
          "lunar" : "0.3220122159",
          "kilometers" : "123836.3515625",
          "miles" : "76948.34375"
        },
        "orbiting_body" : "Earth"
      } ],
      "orbital_data" : {
        "orbit_id" : "3",
        "orbit_determination_date" : "2017-04-06 08:28:08",
        "orbit_uncertainty" : "5",
        "minimum_orbit_intersection" : ".00100317",
        "jupiter_tisserand_invariant" : "6.618",
        "epoch_osculation" : "2458000.5",
        "eccentricity" : ".3249321174923065",
        "semi_major_axis" : ".8916551878557273",
        "inclination" : "2.882295691487752",
        "ascending_node_longitude" : "146.5247613632048",
        "orbital_period" : "307.5344963747085",
        "perihelion_distance" : ".6019277795927654",
        "perihelion_argument" : "232.7766581382644",
        "aphelion_distance" : "1.181382596118689",
        "perihelion_time" : "2457970.160876647113",
        "mean_anomaly" : "35.51498949155759",
        "mean_motion" : "1.17060038546494",
        "equinox" : "J2000"
      }
    }, {
      "links" : {
        "self" : "https://api.nasa.gov/neo/rest/v1/neo/3744694?api_key=t0TVs3DtDT2H8Oy2Zy8m2eVrNsAVKAexjcZXUckd"
      },
      "neo_reference_id" : "3744694",
      "name" : "(2016 DH)",
      "nasa_jpl_url" : "http://ssd.jpl.nasa.gov/sbdb.cgi?sstr=3744694",
      "absolute_magnitude_h" : 27.5,
      "estimated_diameter" : {
        "kilometers" : {
          "estimated_diameter_min" : 0.008405334,
          "estimated_diameter_max" : 0.0187948982
        },
        "meters" : {
          "estimated_diameter_min" : 8.4053340207,
          "estimated_diameter_max" : 18.7948982439
        },
        "miles" : {
          "estimated_diameter_min" : 0.0052228308,
          "estimated_diameter_max" : 0.0116786047
        },
        "feet" : {
          "estimated_diameter_min" : 27.5765560686,
          "estimated_diameter_max" : 61.6630539546
        }
      },
      "is_potentially_hazardous_asteroid" : false,
      "close_approach_data" : [ {
        "close_approach_date" : "2016-02-15",
        "epoch_date_close_approach" : 1455523200000,
        "relative_velocity" : {
          "kilometers_per_second" : "4.3212942977",
          "kilometers_per_hour" : "15556.6594715671",
          "miles_per_hour" : "9666.3032144301"
        },
        "miss_distance" : {
          "astronomical" : "0.0249614041",
          "lunar" : "9.7099866867",
          "kilometers" : "3734173",
          "miles" : "2320307.5"
        },
        "orbiting_body" : "Earth"
      } ],
      "orbital_data" : {
        "orbit_id" : "6",
        "orbit_determination_date" : "2017-04-06 08:28:07",
        "orbit_uncertainty" : "6",
        "minimum_orbit_intersection" : ".0260719",
        "jupiter_tisserand_invariant" : "5.910",
        "epoch_osculation" : "2458000.5",
        "eccentricity" : ".02264797622084878",
        "semi_major_axis" : "1.034988122646718",
        "inclination" : "8.201472847436348",
        "ascending_node_longitude" : "145.9887884887358",
        "orbital_period" : "384.5930889184347",
        "perihelion_distance" : "1.011547736256154",
        "perihelion_argument" : "345.8980369928332",
        "aphelion_distance" : "1.058428509037282",
        "perihelion_time" : "2458189.028474585325",
        "mean_anomaly" : "183.5271178647962",
        "mean_motion" : ".9360542619535984",
        "equinox" : "J2000"
      }
    } ]
  }
}